{
    "links": {
        "self": "http://www.neowsapp.com/rest/v1/neo/3557334?api_key=iIulBulltgU6a56xZRHN4H3l9WmuAYTsLGpBGhQ2"
    },
    "id": "3557334",
    "neo_reference_id": "3557334",
    "name": "(2011 CG33)",
    "designation": "2011 CG33",
    "nasa_jpl_url": "http://ssd.jpl.nasa.gov/sbdb.cgi?sstr=3557334",
    "absolute_magnitude_h": 21.9,
    "estimated_diameter": {
        "kilometers": {
            "estimated_diameter_min": 0.1108038821,
            "estimated_diameter_max": 0.2477650126
        },
        "meters": {
            "estimated_diameter_min": 110.8038821264,
            "estimated_diameter_max": 247.7650126055
        },
        "miles": {
            "estimated_diameter_min": 0.068850319,
            "estimated_diameter_max": 0.1539539936
        },
        "feet": {
            "estimated_diameter_min": 363.5298086356,
            "estimated_diameter_max": 812.8773639568
        }
    },
    "is_potentially_hazardous_asteroid": false,
    "close_approach_data": [
        {
            "close_approach_date": "2011-03-05",
            "close_approach_date_full": "2011-Mar-05 08:37",
            "epoch_date_close_approach": 1299314220000,
            "relative_velocity": {
                "kilometers_per_second": "19.3423040564",
                "kilometers_per_hour": "69632.2946028661",
                "miles_per_hour": "43266.7999436531"
            },
            "miss_distance": {
                "astronomical": "0.1871610949",
                "lunar": "72.8056659161",
                "kilometers": "27998901.143907863",
                "miles": "17397710.4282719894"
            },
            "orbiting_body": "Earth"
        },
        {
            "close_approach_date": "2167-03-12",
            "close_approach_date_full": "2167-Mar-12 17:58",
            "epoch_date_close_approach": 6222851880000,
            "relative_velocity": {
                "kilometers_per_second": "6.3303044534",
                "kilometers_per_hour": "22789.0960323625",
                "miles_per_hour": "14160.2580318866"
            },
            "miss_distance": {
                "astronomical": "1.414409894",
                "lunar": "550.205448766",
                "kilometers": "211592707.44932578",
                "miles": "131477611.711144564"
            },
            "orbiting_body": "Juptr"
        }
    ],
    "orbital_data": {
        "orbit_id": "9",
        "orbit_determination_date": "2017-04-06 08:54:31",
        "first_observation_date": "2011-02-08",
        "last_observation_date": "2011-02-25",
        "data_arc_in_days": 17,
        "observations_used": 32,
        "orbit_uncertainty": "8",
        "minimum_orbit_intersection": ".0705215",
        "jupiter_tisserand_invariant": "3.185",
        "epoch_osculation": "2455604.5",
        "eccentricity": ".76125410200497",
        "semi_major_axis": "2.207842473558299",
        "inclination": "11.21656138873883",
        "ascending_node_longitude": "314.0325417501855",
        "orbital_period": "1198.258594550646",
        "perihelion_distance": ".5271133339812444",
        "perihelion_argument": "296.5183441326673",
        "aphelion_distance": "3.888571613135353",
        "perihelion_time": "2455672.078060699265",
        "mean_anomaly": "339.6971188336366",
        "mean_motion": ".3004359840498386",
        "equinox": "J2000",
        "orbit_class": {
            "orbit_class_type": "APO",
            "orbit_class_description": "Near-Earth asteroid orbits which cross the Earth’s orbit similar to that of 1862 Apollo",
            "orbit_class_range": "a (semi-major axis) > 1.0 AU; q (perihelion) < 1.017 AU"
        }
    },
    "is_sentry_object": false
}